{"type": "FeatureCollection", "features": [{"type": "Feature", "geometry": {"type": "Point", "coordinates": [77.69557731104813, 12.93973288841342]}, "properties": {"rank": 3, "gh7": "tdr3858", "impact": 99.96, "tier3_share": 0.947, "heavy_share": 0.07, "segment_m": 6159.2, "t_base_s": 823.0, "capacity_reduction": 0.446, "delay_min": 11.02}}, {"type": "Feature", "geometry": {"type": "Point", "coordinates": [77.66938846018412, 12.996555759412237]}, "properties": {"rank": 1, "gh7": "tdr1zmv", "impact": 100.0, "tier3_share": 0.793, "heavy_share": 0.31, "segment_m": 4619.0, "t_base_s": 584.7, "capacity_reduction": 0.44, "delay_min": 7.65}}, {"type": "Feature", "geometry": {"type": "Point", "coordinates": [77.66994432231729, 12.99718472440759]}, "properties": {"rank": 2, "gh7": "tdr1zqj", "impact": 99.98, "tier3_share": 0.681, "heavy_share": 0.426, "segment_m": 4708.9, "t_base_s": 600.9, "capacity_reduction": 0.423, "delay_min": 7.35}}, {"type": "Feature", "geometry": {"type": "Point", "coordinates": [77.66845894210168, 12.996175827620116]}, "properties": {"rank": 6, "gh7": "tdr1zmu", "impact": 99.91, "tier3_share": 0.651, "heavy_share": 0.162, "segment_m": 4341.4, "t_base_s": 649.0, "capacity_reduction": 0.36, "delay_min": 6.09}}, {"type": "Feature", "geometry": {"type": "Point", "coordinates": [77.66720008716078, 12.995703674126748]}, "properties": {"rank": 18, "gh7": "tdr1zmg", "impact": 99.69, "tier3_share": 0.615, "heavy_share": 0.167, "segment_m": 3698.3, "t_base_s": 589.8, "capacity_reduction": 0.349, "delay_min": 5.26}}, {"type": "Feature", "geometry": {"type": "Point", "coordinates": [77.69968858434343, 12.949825590404041]}, "properties": {"rank": 13, "gh7": "tdr38j7", "impact": 99.78, "tier3_share": 0.624, "heavy_share": 0.26, "segment_m": 2619.6, "t_base_s": 419.8, "capacity_reduction": 0.37, "delay_min": 4.11}}, {"type": "Feature", "geometry": {"type": "Point", "coordinates": [77.69682238709677, 13.008084070967742]}, "properties": {"rank": 10, "gh7": "tdr6001", "impact": 99.84, "tier3_share": 0.887, "heavy_share": 0.032, "segment_m": 2177.7, "t_base_s": 343.9, "capacity_reduction": 0.417, "delay_min": 4.1}}, {"type": "Feature", "geometry": {"type": "Point", "coordinates": [77.69471723099761, 13.008235539011372]}, "properties": {"rank": 7, "gh7": "tdr4pbp", "impact": 99.89, "tier3_share": 0.255, "heavy_share": 0.025, "segment_m": 4373.5, "t_base_s": 555.9, "capacity_reduction": 0.194, "delay_min": 2.23}}, {"type": "Feature", "geometry": {"type": "Point", "coordinates": [77.67694617923867, 13.000437365404988]}, "properties": {"rank": 17, "gh7": "tdr1zwd", "impact": 99.71, "tier3_share": 0.391, "heavy_share": 0.041, "segment_m": 3735.4, "t_base_s": 376.2, "capacity_reduction": 0.245, "delay_min": 2.04}}, {"type": "Feature", "geometry": {"type": "Point", "coordinates": [77.69730904651851, 13.010044446555556]}, "properties": {"rank": 14, "gh7": "tdr6003", "impact": 99.76, "tier3_share": 0.367, "heavy_share": 0.052, "segment_m": 1919.4, "t_base_s": 348.7, "capacity_reduction": 0.239, "delay_min": 1.82}}, {"type": "Feature", "geometry": {"type": "Point", "coordinates": [77.69355554034335, 13.00830140085837]}, "properties": {"rank": 12, "gh7": "tdr4pbn", "impact": 99.8, "tier3_share": 0.159, "heavy_share": 0.03, "segment_m": 4422.9, "t_base_s": 555.6, "capacity_reduction": 0.162, "delay_min": 1.78}}, {"type": "Feature", "geometry": {"type": "Point", "coordinates": [77.69472388702883, 12.939630164955167]}, "properties": {"rank": 9, "gh7": "tdr1xgx", "impact": 99.85, "tier3_share": 0.205, "heavy_share": 0.057, "segment_m": 1956.0, "t_base_s": 360.6, "capacity_reduction": 0.183, "delay_min": 1.35}}]}