{"type": "FeatureCollection", "features": [{"type": "Feature", "geometry": {"type": "Point", "coordinates": [77.69968858434343, 12.949825590404041]}, "properties": {"rank": 13, "gh7": "tdr38j7", "impact": 99.78, "n": 396, "tier3_share": 0.624, "heavy_share": 0.26, "mappls_street": "Outer Ring Road", "mappls_subLocality": "Marathahalli Village", "mappls_locality": "Marathahalli", "mappls_district": "Bengaluru Urban District", "road_class": "arterial/highway", "road_exposure": 1.5, "impact_capacity_raw": 149.67, "impact_capacity": 100.0}}, {"type": "Feature", "geometry": {"type": "Point", "coordinates": [77.69984150146493, 12.950755534860487]}, "properties": {"rank": 24, "gh7": "tdr38je", "impact": 99.58, "n": 216, "tier3_share": 0.727, "heavy_share": 0.333, "mappls_street": "Outer Ring Road", "mappls_subLocality": "Sharadamma Layout", "mappls_locality": "Munnekolala", "mappls_district": "Bengaluru Urban District", "road_class": "arterial/highway", "road_exposure": 1.5, "impact_capacity_raw": 149.37, "impact_capacity": 99.8}}, {"type": "Feature", "geometry": {"type": "Point", "coordinates": [77.6992643283019, 12.949687139622641]}, "properties": {"rank": 25, "gh7": "tdr38j6", "impact": 99.56, "n": 53, "tier3_share": 0.604, "heavy_share": 0.302, "mappls_street": "Outer Ring Road", "mappls_subLocality": "Marathahalli Village", "mappls_locality": "Marathahalli", "mappls_district": "Bengaluru Urban District", "road_class": "arterial/highway", "road_exposure": 1.5, "impact_capacity_raw": 149.34, "impact_capacity": 99.78}}, {"type": "Feature", "geometry": {"type": "Point", "coordinates": [77.68829003224398, 12.932640992095982]}, "properties": {"rank": 28, "gh7": "tdr1xf6", "impact": 99.51, "n": 225, "tier3_share": 0.324, "heavy_share": 0.058, "mappls_street": "Outer Ring Road", "mappls_subLocality": "Vajram Onyx", "mappls_locality": "Devara Beesana Halli", "mappls_district": "Bengaluru Urban District", "road_class": "arterial/highway", "road_exposure": 1.5, "impact_capacity_raw": 149.26, "impact_capacity": 99.73}}, {"type": "Feature", "geometry": {"type": "Point", "coordinates": [77.68960222568539, 12.934088191839336]}, "properties": {"rank": 29, "gh7": "tdr1xfe", "impact": 99.49, "n": 100, "tier3_share": 0.6, "heavy_share": 0.03, "mappls_street": "Outer Ring Road", "mappls_subLocality": "Prestige Silver Crest", "mappls_locality": "Kadubisanahalli", "mappls_district": "Bengaluru Urban District", "road_class": "arterial/highway", "road_exposure": 1.5, "impact_capacity_raw": 149.24, "impact_capacity": 99.71}}, {"type": "Feature", "geometry": {"type": "Point", "coordinates": [77.69287072590002, 12.936760726270863]}, "properties": {"rank": 34, "gh7": "tdr1xgn", "impact": 99.4, "n": 147, "tier3_share": 0.204, "heavy_share": 0.068, "mappls_street": "Outer Ring Road", "mappls_subLocality": "Featherlite The Address", "mappls_locality": "Kadubisanahalli", "mappls_district": "Bengaluru Urban District", "road_class": "arterial/highway", "road_exposure": 1.5, "impact_capacity_raw": 149.1, "impact_capacity": 99.62}}, {"type": "Feature", "geometry": {"type": "Point", "coordinates": [77.68874186308155, 12.932918650140323]}, "properties": {"rank": 36, "gh7": "tdr1xf7", "impact": 99.36, "n": 294, "tier3_share": 0.224, "heavy_share": 0.024, "mappls_street": "Outer Ring Road", "mappls_subLocality": "Chandana", "mappls_locality": "Kadubisanahalli", "mappls_district": "Bengaluru Urban District", "road_class": "arterial/highway", "road_exposure": 1.5, "impact_capacity_raw": 149.04, "impact_capacity": 99.58}}, {"type": "Feature", "geometry": {"type": "Point", "coordinates": [77.67772099160082, 13.000400955672701]}, "properties": {"rank": 44, "gh7": "tdr1zwe", "impact": 99.22, "n": 405, "tier3_share": 0.489, "heavy_share": 0.032, "mappls_street": "Outer Ring Road", "mappls_subLocality": "Venkatappa Colony", "mappls_locality": "Mahadevapura", "mappls_district": "Bengaluru Urban District", "road_class": "arterial/highway", "road_exposure": 1.5, "impact_capacity_raw": 148.83, "impact_capacity": 99.44}}, {"type": "Feature", "geometry": {"type": "Point", "coordinates": [77.69908294806194, 12.947968972877314]}, "properties": {"rank": 70, "gh7": "tdr38j4", "impact": 98.74, "n": 71, "tier3_share": 0.169, "heavy_share": 0.042, "mappls_street": "Outer Ring Road", "mappls_subLocality": "Sumadhura Platinum Square", "mappls_locality": "Kadubisanahalli", "mappls_district": "Bengaluru Urban District", "road_class": "arterial/highway", "road_exposure": 1.5, "impact_capacity_raw": 148.12, "impact_capacity": 98.96}}, {"type": "Feature", "geometry": {"type": "Point", "coordinates": [77.69878686404293, 12.94687215028284]}, "properties": {"rank": 79, "gh7": "tdr38hf", "impact": 98.58, "n": 57, "tier3_share": 0.421, "heavy_share": 0.035, "mappls_street": "Outer Ring Road", "mappls_subLocality": "Sumadhura Platinum Square", "mappls_locality": "Kadubisanahalli", "mappls_district": "Bengaluru Urban District", "road_class": "arterial/highway", "road_exposure": 1.5, "impact_capacity_raw": 147.87, "impact_capacity": 98.8}}, {"type": "Feature", "geometry": {"type": "Point", "coordinates": [77.68788155331049, 12.93198563932637]}, "properties": {"rank": 80, "gh7": "tdr1xf4", "impact": 98.56, "n": 169, "tier3_share": 0.355, "heavy_share": 0.041, "mappls_street": "Outer Ring Road", "mappls_subLocality": "Vajram Onyx", "mappls_locality": "Devara Beesana Halli", "mappls_district": "Bengaluru Urban District", "road_class": "arterial/highway", "road_exposure": 1.5, "impact_capacity_raw": 147.84, "impact_capacity": 98.78}}, {"type": "Feature", "geometry": {"type": "Point", "coordinates": [77.6949068647619, 12.979380445238094]}, "properties": {"rank": 90, "gh7": "tdr1zfz", "impact": 98.38, "n": 210, "tier3_share": 0.5, "heavy_share": 0.067, "mappls_street": "Outer Ring Road", "mappls_subLocality": "Doddanakundi Junction", "mappls_locality": "Doddanekundi", "mappls_district": "Bengaluru Urban District", "road_class": "arterial/highway", "road_exposure": 1.5, "impact_capacity_raw": 147.57, "impact_capacity": 98.6}}, {"type": "Feature", "geometry": {"type": "Point", "coordinates": [77.69727140318987, 12.938589722923924]}, "properties": {"rank": 31, "gh7": "tdr3853", "impact": 99.45, "n": 244, "tier3_share": 0.34, "heavy_share": 0.02, "mappls_street": "Panathur Main Road", "mappls_subLocality": "Darshan Layout", "mappls_locality": "Kadubisanahalli", "mappls_district": "Bengaluru Urban District", "road_class": "main road", "road_exposure": 1.35, "impact_capacity_raw": 134.26, "impact_capacity": 89.7}}, {"type": "Feature", "geometry": {"type": "Point", "coordinates": [77.57754710031718, 12.963504806043018]}, "properties": {"rank": 50, "gh7": "tdr1trf", "impact": 99.11, "n": 546, "tier3_share": 0.143, "heavy_share": 0.009, "mappls_street": "Kalasipalyam Main Road", "mappls_subLocality": "", "mappls_locality": "City Market Circle", "mappls_district": "Bengaluru Urban District", "road_class": "main road", "road_exposure": 1.35, "impact_capacity_raw": 133.8, "impact_capacity": 89.4}}, {"type": "Feature", "geometry": {"type": "Point", "coordinates": [77.6964605578594, 12.938935002043824]}, "properties": {"rank": 55, "gh7": "tdr3852", "impact": 99.02, "n": 79, "tier3_share": 0.405, "heavy_share": 0.013, "mappls_street": "Panathur Main Road", "mappls_subLocality": "Reddy Layout", "mappls_locality": "Kadubisanahalli", "mappls_district": "Bengaluru Urban District", "road_class": "main road", "road_exposure": 1.35, "impact_capacity_raw": 133.67, "impact_capacity": 89.31}}, {"type": "Feature", "geometry": {"type": "Point", "coordinates": [77.69866161522188, 12.938165458474623]}, "properties": {"rank": 64, "gh7": "tdr3856", "impact": 98.85, "n": 125, "tier3_share": 0.28, "heavy_share": 0.064, "mappls_street": "Panathur Main Road", "mappls_subLocality": "Mariyappa Layout", "mappls_locality": "Kadubisanahalli", "mappls_district": "Bengaluru Urban District", "road_class": "main road", "road_exposure": 1.35, "impact_capacity_raw": 133.45, "impact_capacity": 89.16}}, {"type": "Feature", "geometry": {"type": "Point", "coordinates": [77.58023222254047, 12.977203119676213]}, "properties": {"rank": 71, "gh7": "tdr1v6k", "impact": 98.73, "n": 803, "tier3_share": 0.022, "heavy_share": 0.057, "mappls_street": "1st Main Road", "mappls_subLocality": "Sri Kanakadasa Circle", "mappls_locality": "Gandhi Nagar", "mappls_district": "Bengaluru Urban District", "road_class": "main road", "road_exposure": 1.35, "impact_capacity_raw": 133.28, "impact_capacity": 89.05}}, {"type": "Feature", "geometry": {"type": "Point", "coordinates": [77.64800443556497, 12.968924273434032]}, "properties": {"rank": 73, "gh7": "tdr1ybv", "impact": 98.69, "n": 57, "tier3_share": 0.175, "heavy_share": 0.035, "mappls_street": "Jeevan Bhima Nagar Main Road", "mappls_subLocality": "Indian Airlines Staff Quarters", "mappls_locality": "Indiranagar", "mappls_district": "Bengaluru Urban District", "road_class": "main road", "road_exposure": 1.35, "impact_capacity_raw": 133.23, "impact_capacity": 89.02}}, {"type": "Feature", "geometry": {"type": "Point", "coordinates": [77.64745260228266, 12.97098869800923]}, "properties": {"rank": 78, "gh7": "tdr1ycm", "impact": 98.6, "n": 136, "tier3_share": 0.485, "heavy_share": 0.022, "mappls_street": "4th Main Road", "mappls_subLocality": "The Junction", "mappls_locality": "Indiranagar", "mappls_district": "Bengaluru Urban District", "road_class": "main road", "road_exposure": 1.35, "impact_capacity_raw": 133.11, "impact_capacity": 88.94}}, {"type": "Feature", "geometry": {"type": "Point", "coordinates": [77.71149565438596, 12.97200825614035]}, "properties": {"rank": 89, "gh7": "tdr3b37", "impact": 98.4, "n": 57, "tier3_share": 0.404, "heavy_share": 0.07, "mappls_street": "2nd Main Road", "mappls_subLocality": "SJR Brooklyn Apartment", "mappls_locality": "Kundalhalli", "mappls_district": "Bengaluru Urban District", "road_class": "main road", "road_exposure": 1.35, "impact_capacity_raw": 132.84, "impact_capacity": 88.76}}, {"type": "Feature", "geometry": {"type": "Point", "coordinates": [77.57378992608696, 12.965880400579712]}, "properties": {"rank": 91, "gh7": "tdr1v0r", "impact": 98.36, "n": 345, "tier3_share": 0.391, "heavy_share": 0.014, "mappls_street": "AS Char Main Road", "mappls_subLocality": "", "mappls_locality": "Sultanpete", "mappls_district": "Bengaluru Urban District", "road_class": "main road", "road_exposure": 1.35, "impact_capacity_raw": 132.79, "impact_capacity": 88.72}}, {"type": "Feature", "geometry": {"type": "Point", "coordinates": [77.65773981333113, 12.97250528493314]}, "properties": {"rank": 93, "gh7": "tdr1z1s", "impact": 98.32, "n": 53, "tier3_share": 0.132, "heavy_share": 0.057, "mappls_street": "1st Main Road", "mappls_subLocality": "HAL Stage 3", "mappls_locality": "New Thippasandra", "mappls_district": "Bengaluru Urban District", "road_class": "main road", "road_exposure": 1.35, "impact_capacity_raw": 132.74, "impact_capacity": 88.69}}, {"type": "Feature", "geometry": {"type": "Point", "coordinates": [77.69682238709677, 13.008084070967742]}, "properties": {"rank": 10, "gh7": "tdr6001", "impact": 99.84, "n": 62, "tier3_share": 0.887, "heavy_share": 0.032, "mappls_street": "1st Cross Road", "mappls_subLocality": "Nanjamma Layout", "mappls_locality": "KR Puram", "mappls_district": "Bengaluru Urban District", "road_class": "cross/junction", "road_exposure": 1.2, "impact_capacity_raw": 119.8, "impact_capacity": 80.04}}, {"type": "Feature", "geometry": {"type": "Point", "coordinates": [77.70004489386608, 12.952081809093562]}, "properties": {"rank": 26, "gh7": "tdr38jg", "impact": 99.54, "n": 232, "tier3_share": 0.659, "heavy_share": 0.362, "mappls_street": "2nd Cross Road", "mappls_subLocality": "Marathahalli Village", "mappls_locality": "Marathahalli", "mappls_district": "Bengaluru Urban District", "road_class": "cross/junction", "road_exposure": 1.2, "impact_capacity_raw": 119.45, "impact_capacity": 79.81}}, {"type": "Feature", "geometry": {"type": "Point", "coordinates": [77.66938846018412, 12.996555759412237]}, "properties": {"rank": 1, "gh7": "tdr1zmv", "impact": 100.0, "n": 87, "tier3_share": 0.793, "heavy_share": 0.31, "mappls_street": "MBT Road", "mappls_subLocality": "Tin Factory Junction", "mappls_locality": "Dooravani Nagar", "mappls_district": "Bengaluru Urban District", "road_class": "local", "road_exposure": 1.0, "impact_capacity_raw": 100.0, "impact_capacity": 66.81}}, {"type": "Feature", "geometry": {"type": "Point", "coordinates": [77.66994432231729, 12.99718472440759]}, "properties": {"rank": 2, "gh7": "tdr1zqj", "impact": 99.98, "n": 94, "tier3_share": 0.681, "heavy_share": 0.426, "mappls_street": "MBT Road", "mappls_subLocality": "Annaiah Reddy Industrial Area", "mappls_locality": "Dooravani Nagar", "mappls_district": "Bengaluru Urban District", "road_class": "local", "road_exposure": 1.0, "impact_capacity_raw": 99.98, "impact_capacity": 66.8}}, {"type": "Feature", "geometry": {"type": "Point", "coordinates": [77.69557731104813, 12.93973288841342]}, "properties": {"rank": 3, "gh7": "tdr3858", "impact": 99.96, "n": 1192, "tier3_share": 0.947, "heavy_share": 0.07, "mappls_street": "Kadubeesanahalli Underpass", "mappls_subLocality": "Kadubisanahalli Junction", "mappls_locality": "Kadubisanahalli", "mappls_district": "Bengaluru Urban District", "road_class": "local", "road_exposure": 1.0, "impact_capacity_raw": 99.96, "impact_capacity": 66.79}}, {"type": "Feature", "geometry": {"type": "Point", "coordinates": [77.66845894210168, 12.996175827620116]}, "properties": {"rank": 6, "gh7": "tdr1zmu", "impact": 99.91, "n": 1139, "tier3_share": 0.651, "heavy_share": 0.162, "mappls_street": "MBT Road", "mappls_subLocality": "Pai Layout", "mappls_locality": "Mahadevapura", "mappls_district": "Bengaluru Urban District", "road_class": "local", "road_exposure": 1.0, "impact_capacity_raw": 99.91, "impact_capacity": 66.75}}, {"type": "Feature", "geometry": {"type": "Point", "coordinates": [77.69471723099761, 13.008235539011372]}, "properties": {"rank": 7, "gh7": "tdr4pbp", "impact": 99.89, "n": 1127, "tier3_share": 0.255, "heavy_share": 0.025, "mappls_street": "MBT Road", "mappls_subLocality": "Devasandra Junction", "mappls_locality": "KR Puram", "mappls_district": "Bengaluru Urban District", "road_class": "local", "road_exposure": 1.0, "impact_capacity_raw": 99.89, "impact_capacity": 66.74}}, {"type": "Feature", "geometry": {"type": "Point", "coordinates": [77.69472388702883, 12.939630164955167]}, "properties": {"rank": 9, "gh7": "tdr1xgx", "impact": 99.85, "n": 88, "tier3_share": 0.205, "heavy_share": 0.057, "mappls_street": "Yemalur Road", "mappls_subLocality": "Kadubisanahalli Junction", "mappls_locality": "Kadubisanahalli", "mappls_district": "Bengaluru Urban District", "road_class": "local", "road_exposure": 1.0, "impact_capacity_raw": 99.85, "impact_capacity": 66.71}}, {"type": "Feature", "geometry": {"type": "Point", "coordinates": [77.69355554034335, 13.00830140085837]}, "properties": {"rank": 12, "gh7": "tdr4pbn", "impact": 99.8, "n": 233, "tier3_share": 0.159, "heavy_share": 0.03, "mappls_street": "MBT Road", "mappls_subLocality": "Devasandra Junction", "mappls_locality": "KR Puram", "mappls_district": "Bengaluru Urban District", "road_class": "local", "road_exposure": 1.0, "impact_capacity_raw": 99.8, "impact_capacity": 66.68}}, {"type": "Feature", "geometry": {"type": "Point", "coordinates": [77.69730904651851, 13.010044446555556]}, "properties": {"rank": 14, "gh7": "tdr6003", "impact": 99.76, "n": 270, "tier3_share": 0.367, "heavy_share": 0.052, "mappls_street": "MBT Road", "mappls_subLocality": "YSM Layout", "mappls_locality": "KR Puram", "mappls_district": "Bengaluru Urban District", "road_class": "local", "road_exposure": 1.0, "impact_capacity_raw": 99.76, "impact_capacity": 66.65}}, {"type": "Feature", "geometry": {"type": "Point", "coordinates": [77.67694617923867, 13.000437365404988]}, "properties": {"rank": 17, "gh7": "tdr1zwd", "impact": 99.71, "n": 1030, "tier3_share": 0.391, "heavy_share": 0.041, "mappls_street": "MBT Road", "mappls_subLocality": "Kotturu", "mappls_locality": "Dooravani Nagar", "mappls_district": "Bengaluru Urban District", "road_class": "local", "road_exposure": 1.0, "impact_capacity_raw": 99.71, "impact_capacity": 66.62}}, {"type": "Feature", "geometry": {"type": "Point", "coordinates": [77.66720008716078, 12.995703674126748]}, "properties": {"rank": 18, "gh7": "tdr1zmg", "impact": 99.69, "n": 78, "tier3_share": 0.615, "heavy_share": 0.167, "mappls_street": "Old Madras Road", "mappls_subLocality": "Pai Layout", "mappls_locality": "Mahadevapura", "mappls_district": "Bengaluru Urban District", "road_class": "local", "road_exposure": 1.0, "impact_capacity_raw": 99.69, "impact_capacity": 66.61}}, {"type": "Feature", "geometry": {"type": "Point", "coordinates": [77.69027731603327, 12.935381883485944]}, "properties": {"rank": 22, "gh7": "tdr1xfu", "impact": 99.62, "n": 352, "tier3_share": 0.122, "heavy_share": 0.077, "mappls_street": "Kariyammana Agrahara Road", "mappls_subLocality": "Prestige Silver Crest", "mappls_locality": "Kadubisanahalli", "mappls_district": "Bengaluru Urban District", "road_class": "local", "road_exposure": 1.0, "impact_capacity_raw": 99.62, "impact_capacity": 66.56}}, {"type": "Feature", "geometry": {"type": "Point", "coordinates": [77.57385656364208, 12.964722410679514]}, "properties": {"rank": 27, "gh7": "tdr1v0p", "impact": 99.53, "n": 396, "tier3_share": 0.313, "heavy_share": 0.035, "mappls_street": "Mysore Road", "mappls_subLocality": "Chanda Nagar", "mappls_locality": "Sultanpete", "mappls_district": "Bengaluru Urban District", "road_class": "local", "road_exposure": 1.0, "impact_capacity_raw": 99.53, "impact_capacity": 66.5}}, {"type": "Feature", "geometry": {"type": "Point", "coordinates": [77.69571745169887, 13.008272085742838]}, "properties": {"rank": 37, "gh7": "tdr6000", "impact": 99.34, "n": 1501, "tier3_share": 0.338, "heavy_share": 0.011, "mappls_street": "MBT Road", "mappls_subLocality": "Devasandra Junction", "mappls_locality": "KR Puram", "mappls_district": "Bengaluru Urban District", "road_class": "local", "road_exposure": 1.0, "impact_capacity_raw": 99.34, "impact_capacity": 66.37}}, {"type": "Feature", "geometry": {"type": "Point", "coordinates": [77.64748134321951, 12.970194699982557]}, "properties": {"rank": 43, "gh7": "tdr1ycj", "impact": 99.24, "n": 119, "tier3_share": 0.286, "heavy_share": 0.025, "mappls_street": "Sir CV Raman Hospital Road", "mappls_subLocality": "The Junction", "mappls_locality": "Indiranagar", "mappls_district": "Bengaluru Urban District", "road_class": "local", "road_exposure": 1.0, "impact_capacity_raw": 99.24, "impact_capacity": 66.31}}, {"type": "Feature", "geometry": {"type": "Point", "coordinates": [77.70128633668277, 12.956823877606706]}, "properties": {"rank": 46, "gh7": "tdr38ns", "impact": 99.18, "n": 145, "tier3_share": 0.303, "heavy_share": 0.262, "mappls_street": "HAL Airport Road", "mappls_subLocality": "", "mappls_locality": "Marathahalli", "mappls_district": "Bengaluru Urban District", "road_class": "local", "road_exposure": 1.0, "impact_capacity_raw": 99.18, "impact_capacity": 66.27}}, {"type": "Feature", "geometry": {"type": "Point", "coordinates": [77.52677085695363, 13.007255358940398]}, "properties": {"rank": 47, "gh7": "tdr1upv", "impact": 99.16, "n": 151, "tier3_share": 0.715, "heavy_share": 0.371, "mappls_street": "Dr Rajkumar Puniya Bhoomi Road", "mappls_subLocality": "Freedom Fighters Colony", "mappls_locality": "Laggere", "mappls_district": "Bengaluru Urban District", "road_class": "local", "road_exposure": 1.0, "impact_capacity_raw": 99.16, "impact_capacity": 66.25}}, {"type": "Feature", "geometry": {"type": "Point", "coordinates": [77.550613888, 12.990102105333333]}, "properties": {"rank": 75, "gh7": "tdr1usy", "impact": 98.65, "n": 75, "tier3_share": 0.267, "heavy_share": 0.027, "mappls_street": "Chord Road", "mappls_subLocality": "Shivanahalli Junction", "mappls_locality": "Rajaji Nagar", "mappls_district": "Bengaluru Urban District", "road_class": "local", "road_exposure": 1.0, "impact_capacity_raw": 98.65, "impact_capacity": 65.91}}, {"type": "Feature", "geometry": {"type": "Point", "coordinates": [77.57933412758621, 12.97689850781609]}, "properties": {"rank": 76, "gh7": "tdr1v67", "impact": 98.63, "n": 1305, "tier3_share": 0.011, "heavy_share": 0.03, "mappls_street": "Y Ramachandra Road", "mappls_subLocality": "Sri Kanakadasa Circle", "mappls_locality": "Gandhi Nagar", "mappls_district": "Bengaluru Urban District", "road_class": "local", "road_exposure": 1.0, "impact_capacity_raw": 98.63, "impact_capacity": 65.9}}, {"type": "Feature", "geometry": {"type": "Point", "coordinates": [77.54093319021077, 12.952280086007255]}, "properties": {"rank": 77, "gh7": "tdr1smz", "impact": 98.62, "n": 427, "tier3_share": 0.164, "heavy_share": 0.028, "mappls_street": "Mysore Road", "mappls_subLocality": "", "mappls_locality": "BR Pura", "mappls_district": "Bengaluru Urban District", "road_class": "local", "road_exposure": 1.0, "impact_capacity_raw": 98.62, "impact_capacity": 65.89}}, {"type": "Feature", "geometry": {"type": "Point", "coordinates": [77.52676890872483, 13.008680823489932]}, "properties": {"rank": 83, "gh7": "tdr4h0j", "impact": 98.51, "n": 149, "tier3_share": 0.356, "heavy_share": 0.06, "mappls_street": "Dr Rajkumar Puniya Bhoomi Road", "mappls_subLocality": "Malleshwar Layout", "mappls_locality": "Laggere", "mappls_district": "Bengaluru Urban District", "road_class": "local", "road_exposure": 1.0, "impact_capacity_raw": 98.51, "impact_capacity": 65.82}}, {"type": "Feature", "geometry": {"type": "Point", "coordinates": [77.68622865695025, 12.93146452309784]}, "properties": {"rank": 84, "gh7": "tdr1xf1", "impact": 98.49, "n": 105, "tier3_share": 0.152, "heavy_share": 0.029, "mappls_street": "Devarabisanahalli Road", "mappls_subLocality": "Shilpitha Tech Park", "mappls_locality": "Kariyammana Agrahara", "mappls_district": "Bengaluru Urban District", "road_class": "local", "road_exposure": 1.0, "impact_capacity_raw": 98.49, "impact_capacity": 65.8}}, {"type": "Feature", "geometry": {"type": "Point", "coordinates": [77.53166539333333, 13.018078160606061]}, "properties": {"rank": 86, "gh7": "tdr4h3b", "impact": 98.45, "n": 165, "tier3_share": 0.424, "heavy_share": 0.121, "mappls_street": "Dr Rajkumar Puniya Bhoomi Road", "mappls_subLocality": "Block 2", "mappls_locality": "Nandini Layout", "mappls_district": "Bengaluru Urban District", "road_class": "local", "road_exposure": 1.0, "impact_capacity_raw": 98.45, "impact_capacity": 65.78}}, {"type": "Feature", "geometry": {"type": "Point", "coordinates": [77.53127067018633, 13.016771436645964]}, "properties": {"rank": 87, "gh7": "tdr4h38", "impact": 98.43, "n": 161, "tier3_share": 0.224, "heavy_share": 0.075, "mappls_street": "Dr Rajkumar Puniya Bhoomi Road", "mappls_subLocality": "Block 3", "mappls_locality": "Nandini Layout", "mappls_district": "Bengaluru Urban District", "road_class": "local", "road_exposure": 1.0, "impact_capacity_raw": 98.43, "impact_capacity": 65.76}}, {"type": "Feature", "geometry": {"type": "Point", "coordinates": [77.70106162647059, 12.95765713685121]}, "properties": {"rank": 92, "gh7": "tdr38nu", "impact": 98.34, "n": 578, "tier3_share": 0.138, "heavy_share": 0.036, "mappls_street": "Marathahalli Underpass", "mappls_subLocality": "Ashwath Nagar", "mappls_locality": "Marathahalli", "mappls_district": "Bengaluru Urban District", "road_class": "local", "road_exposure": 1.0, "impact_capacity_raw": 98.34, "impact_capacity": 65.7}}, {"type": "Feature", "geometry": {"type": "Point", "coordinates": [77.55008321860464, 12.987849658139535]}, "properties": {"rank": 94, "gh7": "tdr1usq", "impact": 98.31, "n": 86, "tier3_share": 0.209, "heavy_share": 0.047, "mappls_street": "Vatal Nagaraj Road", "mappls_subLocality": "Dhobi Ghat Junction", "mappls_locality": "Rajaji Nagar", "mappls_district": "Bengaluru Urban District", "road_class": "local", "road_exposure": 1.0, "impact_capacity_raw": 98.31, "impact_capacity": 65.68}}, {"type": "Feature", "geometry": {"type": "Point", "coordinates": [77.71746989603524, 12.951746312775331]}, "properties": {"rank": 95, "gh7": "tdr38tb", "impact": 98.29, "n": 227, "tier3_share": 0.674, "heavy_share": 0.15, "mappls_street": "Vibgyor High School Road", "mappls_subLocality": "Green Garden Layout", "mappls_locality": "Munnekolala", "mappls_district": "Bengaluru Urban District", "road_class": "local", "road_exposure": 1.0, "impact_capacity_raw": 98.29, "impact_capacity": 65.67}}]}