{"type": "FeatureCollection", "features": [{"type": "Feature", "geometry": {"type": "Point", "coordinates": [77.600325, 12.9257117]}, "properties": {"gh7": "tdr1tc4", "predicted_impact": 99.2, "n": 1, "distinct_devices": 1, "blind_gap": 0.88, "dominant_vehicle_class": "FREIGHT/HEAVY", "primary_infraction_type": "PARKING IN A MAIN ROAD"}}, {"type": "Feature", "geometry": {"type": "Point", "coordinates": [77.612721, 12.9302655]}, "properties": {"gh7": "tdr1w1g", "predicted_impact": 99.2, "n": 1, "distinct_devices": 1, "blind_gap": 0.88, "dominant_vehicle_class": "FREIGHT/HEAVY", "primary_infraction_type": "DEFECTIVE NUMBER PLATE"}}, {"type": "Feature", "geometry": {"type": "Point", "coordinates": [77.5618166, 12.9569569]}, "properties": {"gh7": "tdr1syw", "predicted_impact": 99.2, "n": 1, "distinct_devices": 1, "blind_gap": 0.88, "dominant_vehicle_class": "FREIGHT/HEAVY", "primary_infraction_type": "NO PARKING"}}, {"type": "Feature", "geometry": {"type": "Point", "coordinates": [77.6246344, 12.9505367]}, "properties": {"gh7": "tdr1wms", "predicted_impact": 99.2, "n": 1, "distinct_devices": 1, "blind_gap": 0.88, "dominant_vehicle_class": "FREIGHT/HEAVY", "primary_infraction_type": "NO PARKING"}}, {"type": "Feature", "geometry": {"type": "Point", "coordinates": [77.5636008, 12.9589263]}, "properties": {"gh7": "tdr1tp0", "predicted_impact": 99.2, "n": 1, "distinct_devices": 1, "blind_gap": 0.88, "dominant_vehicle_class": "FREIGHT/HEAVY", "primary_infraction_type": "NO PARKING"}}, {"type": "Feature", "geometry": {"type": "Point", "coordinates": [77.48105050396327, 12.913149620077702]}, "properties": {"gh7": "tdr17ng", "predicted_impact": 99.2, "n": 1, "distinct_devices": 1, "blind_gap": 0.88, "dominant_vehicle_class": "FREIGHT/HEAVY", "primary_infraction_type": "NO PARKING"}}, {"type": "Feature", "geometry": {"type": "Point", "coordinates": [77.6146403, 12.9236314]}, "properties": {"gh7": "tdr1w0t", "predicted_impact": 99.2, "n": 1, "distinct_devices": 1, "blind_gap": 0.88, "dominant_vehicle_class": "FREIGHT/HEAVY", "primary_infraction_type": "NO PARKING"}}, {"type": "Feature", "geometry": {"type": "Point", "coordinates": [77.6002567, 12.9245217]}, "properties": {"gh7": "tdr1tbf", "predicted_impact": 99.2, "n": 1, "distinct_devices": 1, "blind_gap": 0.88, "dominant_vehicle_class": "FREIGHT/HEAVY", "primary_infraction_type": "DEFECTIVE NUMBER PLATE"}}, {"type": "Feature", "geometry": {"type": "Point", "coordinates": [77.75335749739845, 12.884118588420778]}, "properties": {"gh7": "tdr3336", "predicted_impact": 99.2, "n": 1, "distinct_devices": 1, "blind_gap": 0.88, "dominant_vehicle_class": "FREIGHT/HEAVY", "primary_infraction_type": "DOUBLE PARKING"}}, {"type": "Feature", "geometry": {"type": "Point", "coordinates": [77.6316592, 13.1003213]}, "properties": {"gh7": "tdr4w8c", "predicted_impact": 97.2, "n": 1, "distinct_devices": 1, "blind_gap": 0.86, "dominant_vehicle_class": "FREIGHT/HEAVY", "primary_infraction_type": "NO PARKING"}}, {"type": "Feature", "geometry": {"type": "Point", "coordinates": [77.5389183, 13.014805]}, "properties": {"gh7": "tdr4h3q", "predicted_impact": 97.2, "n": 1, "distinct_devices": 1, "blind_gap": 0.86, "dominant_vehicle_class": "FREIGHT/HEAVY", "primary_infraction_type": "WRONG PARKING"}}, {"type": "Feature", "geometry": {"type": "Point", "coordinates": [77.5286187, 13.0216531]}, "properties": {"gh7": "tdr4h4w", "predicted_impact": 97.2, "n": 1, "distinct_devices": 1, "blind_gap": 0.86, "dominant_vehicle_class": "FREIGHT/HEAVY", "primary_infraction_type": "WRONG PARKING"}}, {"type": "Feature", "geometry": {"type": "Point", "coordinates": [77.5210521, 13.0256749]}, "properties": {"gh7": "tdr4h53", "predicted_impact": 97.2, "n": 1, "distinct_devices": 1, "blind_gap": 0.86, "dominant_vehicle_class": "FREIGHT/HEAVY", "primary_infraction_type": "WRONG PARKING"}}, {"type": "Feature", "geometry": {"type": "Point", "coordinates": [77.621268, 12.9514557]}, "properties": {"gh7": "tdr1wmd", "predicted_impact": 97.2, "n": 1, "distinct_devices": 1, "blind_gap": 0.86, "dominant_vehicle_class": "FREIGHT/HEAVY", "primary_infraction_type": "NO PARKING"}}, {"type": "Feature", "geometry": {"type": "Point", "coordinates": [77.6079655, 12.9779016]}, "properties": {"gh7": "tdr1y48", "predicted_impact": 97.2, "n": 1, "distinct_devices": 1, "blind_gap": 0.86, "dominant_vehicle_class": "FREIGHT/HEAVY", "primary_infraction_type": "NO PARKING"}}, {"type": "Feature", "geometry": {"type": "Point", "coordinates": [77.5170887, 12.9802567]}, "properties": {"gh7": "tdr1gfy", "predicted_impact": 97.2, "n": 1, "distinct_devices": 1, "blind_gap": 0.86, "dominant_vehicle_class": "FREIGHT/HEAVY", "primary_infraction_type": "WRONG PARKING"}}, {"type": "Feature", "geometry": {"type": "Point", "coordinates": [77.7532548, 12.9445675]}, "properties": {"gh7": "tdr39k6", "predicted_impact": 97.2, "n": 1, "distinct_devices": 1, "blind_gap": 0.86, "dominant_vehicle_class": "FREIGHT/HEAVY", "primary_infraction_type": "WRONG PARKING"}}, {"type": "Feature", "geometry": {"type": "Point", "coordinates": [77.6206967, 13.0290083]}, "properties": {"gh7": "tdr4n7c", "predicted_impact": 97.2, "n": 1, "distinct_devices": 1, "blind_gap": 0.86, "dominant_vehicle_class": "FREIGHT/HEAVY", "primary_infraction_type": "NO PARKING"}}, {"type": "Feature", "geometry": {"type": "Point", "coordinates": [77.64125450219566, 12.90246982548289]}, "properties": {"gh7": "tdr1qub", "predicted_impact": 97.2, "n": 1, "distinct_devices": 1, "blind_gap": 0.86, "dominant_vehicle_class": "FREIGHT/HEAVY", "primary_infraction_type": "PARKING ON FOOTPATH"}}, {"type": "Feature", "geometry": {"type": "Point", "coordinates": [77.613707, 12.9082899]}, "properties": {"gh7": "tdr1qju", "predicted_impact": 97.2, "n": 1, "distinct_devices": 1, "blind_gap": 0.86, "dominant_vehicle_class": "FREIGHT/HEAVY", "primary_infraction_type": "NO PARKING"}}, {"type": "Feature", "geometry": {"type": "Point", "coordinates": [77.6475283, 12.8994583]}, "properties": {"gh7": "tdr1qum", "predicted_impact": 97.2, "n": 1, "distinct_devices": 1, "blind_gap": 0.86, "dominant_vehicle_class": "FREIGHT/HEAVY", "primary_infraction_type": "WRONG PARKING"}}, {"type": "Feature", "geometry": {"type": "Point", "coordinates": [77.7447847, 12.9526495]}, "properties": {"gh7": "tdr39ju", "predicted_impact": 97.2, "n": 1, "distinct_devices": 1, "blind_gap": 0.86, "dominant_vehicle_class": "FREIGHT/HEAVY", "primary_infraction_type": "NO PARKING"}}, {"type": "Feature", "geometry": {"type": "Point", "coordinates": [77.7476875, 12.9443237]}, "properties": {"gh7": "tdr39hq", "predicted_impact": 97.2, "n": 1, "distinct_devices": 1, "blind_gap": 0.86, "dominant_vehicle_class": "FREIGHT/HEAVY", "primary_infraction_type": "WRONG PARKING"}}, {"type": "Feature", "geometry": {"type": "Point", "coordinates": [77.5502722, 13.0455748]}, "properties": {"gh7": "tdr4hwy", "predicted_impact": 97.2, "n": 1, "distinct_devices": 1, "blind_gap": 0.86, "dominant_vehicle_class": "FREIGHT/HEAVY", "primary_infraction_type": "WRONG PARKING"}}, {"type": "Feature", "geometry": {"type": "Point", "coordinates": [77.7469133, 12.9435633]}, "properties": {"gh7": "tdr39hm", "predicted_impact": 97.2, "n": 1, "distinct_devices": 1, "blind_gap": 0.86, "dominant_vehicle_class": "FREIGHT/HEAVY", "primary_infraction_type": "NO PARKING"}}, {"type": "Feature", "geometry": {"type": "Point", "coordinates": [77.6619719, 13.0104198]}, "properties": {"gh7": "tdr4p0r", "predicted_impact": 97.2, "n": 1, "distinct_devices": 1, "blind_gap": 0.86, "dominant_vehicle_class": "FREIGHT/HEAVY", "primary_infraction_type": "WRONG PARKING"}}, {"type": "Feature", "geometry": {"type": "Point", "coordinates": [77.6582331, 13.010563]}, "properties": {"gh7": "tdr4p0s", "predicted_impact": 97.2, "n": 1, "distinct_devices": 1, "blind_gap": 0.86, "dominant_vehicle_class": "FREIGHT/HEAVY", "primary_infraction_type": "NO PARKING"}}, {"type": "Feature", "geometry": {"type": "Point", "coordinates": [77.6455628, 12.8782062]}, "properties": {"gh7": "tdr1qb7", "predicted_impact": 97.2, "n": 1, "distinct_devices": 1, "blind_gap": 0.86, "dominant_vehicle_class": "FREIGHT/HEAVY", "primary_infraction_type": "WRONG PARKING"}}, {"type": "Feature", "geometry": {"type": "Point", "coordinates": [77.6381917, 12.88628]}, "properties": {"gh7": "tdr1q9y", "predicted_impact": 97.2, "n": 1, "distinct_devices": 1, "blind_gap": 0.86, "dominant_vehicle_class": "FREIGHT/HEAVY", "primary_infraction_type": "WRONG PARKING"}}, {"type": "Feature", "geometry": {"type": "Point", "coordinates": [77.6199212, 12.9690361]}, "properties": {"gh7": "tdr1y2c", "predicted_impact": 97.2, "n": 1, "distinct_devices": 1, "blind_gap": 0.86, "dominant_vehicle_class": "FREIGHT/HEAVY", "primary_infraction_type": "NO PARKING"}}, {"type": "Feature", "geometry": {"type": "Point", "coordinates": [77.5549561, 12.9972446]}, "properties": {"gh7": "tdr1uy1", "predicted_impact": 97.2, "n": 1, "distinct_devices": 1, "blind_gap": 0.86, "dominant_vehicle_class": "FREIGHT/HEAVY", "primary_infraction_type": "NO PARKING"}}, {"type": "Feature", "geometry": {"type": "Point", "coordinates": [77.6298733, 12.94474]}, "properties": {"gh7": "tdr1ws8", "predicted_impact": 97.2, "n": 1, "distinct_devices": 1, "blind_gap": 0.86, "dominant_vehicle_class": "FREIGHT/HEAVY", "primary_infraction_type": "WRONG PARKING"}}, {"type": "Feature", "geometry": {"type": "Point", "coordinates": [77.5326513, 13.0141159]}, "properties": {"gh7": "tdr4h31", "predicted_impact": 97.2, "n": 1, "distinct_devices": 1, "blind_gap": 0.86, "dominant_vehicle_class": "FREIGHT/HEAVY", "primary_infraction_type": "NO PARKING"}}, {"type": "Feature", "geometry": {"type": "Point", "coordinates": [77.5129267, 12.961305]}, "properties": {"gh7": "tdr1eze", "predicted_impact": 97.2, "n": 1, "distinct_devices": 1, "blind_gap": 0.86, "dominant_vehicle_class": "FREIGHT/HEAVY", "primary_infraction_type": "WRONG PARKING"}}, {"type": "Feature", "geometry": {"type": "Point", "coordinates": [77.7088489, 12.9875305]}, "properties": {"gh7": "tdr3bk3", "predicted_impact": 97.2, "n": 1, "distinct_devices": 1, "blind_gap": 0.86, "dominant_vehicle_class": "FREIGHT/HEAVY", "primary_infraction_type": "WRONG PARKING"}}, {"type": "Feature", "geometry": {"type": "Point", "coordinates": [77.5360443, 12.9486661]}, "properties": {"gh7": "tdr1smh", "predicted_impact": 97.2, "n": 1, "distinct_devices": 1, "blind_gap": 0.86, "dominant_vehicle_class": "FREIGHT/HEAVY", "primary_infraction_type": "WRONG PARKING"}}, {"type": "Feature", "geometry": {"type": "Point", "coordinates": [77.5546533, 12.9262217]}, "properties": {"gh7": "tdr1sc1", "predicted_impact": 97.2, "n": 1, "distinct_devices": 1, "blind_gap": 0.86, "dominant_vehicle_class": "FREIGHT/HEAVY", "primary_infraction_type": "WRONG PARKING"}}, {"type": "Feature", "geometry": {"type": "Point", "coordinates": [77.7200726, 13.0256155]}, "properties": {"gh7": "tdr60e4", "predicted_impact": 97.2, "n": 1, "distinct_devices": 1, "blind_gap": 0.86, "dominant_vehicle_class": "FREIGHT/HEAVY", "primary_infraction_type": "WRONG PARKING"}}, {"type": "Feature", "geometry": {"type": "Point", "coordinates": [77.7173989, 13.024878]}, "properties": {"gh7": "tdr60e0", "predicted_impact": 97.2, "n": 1, "distinct_devices": 1, "blind_gap": 0.86, "dominant_vehicle_class": "FREIGHT/HEAVY", "primary_infraction_type": "WRONG PARKING"}}, {"type": "Feature", "geometry": {"type": "Point", "coordinates": [77.56075, 12.9227033]}, "properties": {"gh7": "tdr1sbw", "predicted_impact": 97.2, "n": 1, "distinct_devices": 1, "blind_gap": 0.86, "dominant_vehicle_class": "FREIGHT/HEAVY", "primary_infraction_type": "WRONG PARKING"}}, {"type": "Feature", "geometry": {"type": "Point", "coordinates": [77.695736, 13.0233535]}, "properties": {"gh7": "tdr604b", "predicted_impact": 97.2, "n": 1, "distinct_devices": 1, "blind_gap": 0.86, "dominant_vehicle_class": "FREIGHT/HEAVY", "primary_infraction_type": "WRONG PARKING"}}, {"type": "Feature", "geometry": {"type": "Point", "coordinates": [77.70038, 13.021495]}, "properties": {"gh7": "tdr6047", "predicted_impact": 97.2, "n": 1, "distinct_devices": 1, "blind_gap": 0.86, "dominant_vehicle_class": "FREIGHT/HEAVY", "primary_infraction_type": "NO PARKING"}}, {"type": "Feature", "geometry": {"type": "Point", "coordinates": [77.5939104, 12.9627836]}, "properties": {"gh7": "tdr1txy", "predicted_impact": 97.2, "n": 1, "distinct_devices": 1, "blind_gap": 0.86, "dominant_vehicle_class": "FREIGHT/HEAVY", "primary_infraction_type": "WRONG PARKING"}}, {"type": "Feature", "geometry": {"type": "Point", "coordinates": [77.5733635, 13.0717264]}, "properties": {"gh7": "tdr4m5x", "predicted_impact": 97.2, "n": 1, "distinct_devices": 1, "blind_gap": 0.86, "dominant_vehicle_class": "FREIGHT/HEAVY", "primary_infraction_type": "WRONG PARKING"}}, {"type": "Feature", "geometry": {"type": "Point", "coordinates": [77.5629515, 12.9831661]}, "properties": {"gh7": "tdr1ugx", "predicted_impact": 97.2, "n": 1, "distinct_devices": 1, "blind_gap": 0.86, "dominant_vehicle_class": "FREIGHT/HEAVY", "primary_infraction_type": "NO PARKING"}}, {"type": "Feature", "geometry": {"type": "Point", "coordinates": [77.511368, 13.0363172]}, "properties": {"gh7": "tdr45v4", "predicted_impact": 97.2, "n": 1, "distinct_devices": 1, "blind_gap": 0.86, "dominant_vehicle_class": "FREIGHT/HEAVY", "primary_infraction_type": "WRONG PARKING"}}, {"type": "Feature", "geometry": {"type": "Point", "coordinates": [77.5096086, 12.9628301]}, "properties": {"gh7": "tdr1ezb", "predicted_impact": 97.2, "n": 1, "distinct_devices": 1, "blind_gap": 0.86, "dominant_vehicle_class": "FREIGHT/HEAVY", "primary_infraction_type": "WRONG PARKING"}}, {"type": "Feature", "geometry": {"type": "Point", "coordinates": [77.58605, 12.9428517]}, "properties": {"gh7": "tdr1ts0", "predicted_impact": 97.2, "n": 1, "distinct_devices": 1, "blind_gap": 0.86, "dominant_vehicle_class": "FREIGHT/HEAVY", "primary_infraction_type": "WRONG PARKING"}}, {"type": "Feature", "geometry": {"type": "Point", "coordinates": [77.6035239, 12.9440991]}, "properties": {"gh7": "tdr1tum", "predicted_impact": 97.2, "n": 1, "distinct_devices": 1, "blind_gap": 0.86, "dominant_vehicle_class": "FREIGHT/HEAVY", "primary_infraction_type": "NO PARKING"}}, {"type": "Feature", "geometry": {"type": "Point", "coordinates": [77.6338451, 13.1221804]}, "properties": {"gh7": "tdr4wsg", "predicted_impact": 97.2, "n": 1, "distinct_devices": 1, "blind_gap": 0.86, "dominant_vehicle_class": "FREIGHT/HEAVY", "primary_infraction_type": "NO PARKING"}}, {"type": "Feature", "geometry": {"type": "Point", "coordinates": [77.6978095, 12.9263943]}, "properties": {"gh7": "tdr3811", "predicted_impact": 95.6, "n": 1, "distinct_devices": 1, "blind_gap": 0.844, "dominant_vehicle_class": "TWO-WHEELER", "primary_infraction_type": "NO PARKING"}}, {"type": "Feature", "geometry": {"type": "Point", "coordinates": [77.6060175, 12.8982169]}, "properties": {"gh7": "tdr1mun", "predicted_impact": 95.6, "n": 1, "distinct_devices": 1, "blind_gap": 0.844, "dominant_vehicle_class": "AUTO", "primary_infraction_type": "NO PARKING"}}, {"type": "Feature", "geometry": {"type": "Point", "coordinates": [77.6991861, 12.9374125]}, "properties": {"gh7": "tdr3854", "predicted_impact": 95.6, "n": 1, "distinct_devices": 1, "blind_gap": 0.844, "dominant_vehicle_class": "AUTO", "primary_infraction_type": "PARKING IN A MAIN ROAD"}}, {"type": "Feature", "geometry": {"type": "Point", "coordinates": [77.6070837, 12.9440513]}, "properties": {"gh7": "tdr1tur", "predicted_impact": 95.6, "n": 1, "distinct_devices": 1, "blind_gap": 0.844, "dominant_vehicle_class": "OTHER", "primary_infraction_type": "DEFECTIVE NUMBER PLATE"}}, {"type": "Feature", "geometry": {"type": "Point", "coordinates": [77.6038867, 13.0354367]}, "properties": {"gh7": "tdr4jvj", "predicted_impact": 95.6, "n": 1, "distinct_devices": 1, "blind_gap": 0.844, "dominant_vehicle_class": "CAR/LV", "primary_infraction_type": "PARKING NEAR ROAD CROSSING"}}, {"type": "Feature", "geometry": {"type": "Point", "coordinates": [77.6060223, 12.9154111]}, "properties": {"gh7": "tdr1mzn", "predicted_impact": 95.6, "n": 1, "distinct_devices": 1, "blind_gap": 0.844, "dominant_vehicle_class": "CAR/LV", "primary_infraction_type": "DOUBLE PARKING"}}, {"type": "Feature", "geometry": {"type": "Point", "coordinates": [77.5637899, 12.9191406]}, "properties": {"gh7": "tdr1mpb", "predicted_impact": 95.6, "n": 1, "distinct_devices": 1, "blind_gap": 0.844, "dominant_vehicle_class": "AUTO", "primary_infraction_type": "PARKING IN A MAIN ROAD"}}, {"type": "Feature", "geometry": {"type": "Point", "coordinates": [77.7021191, 12.9378354]}, "properties": {"gh7": "tdr385k", "predicted_impact": 95.6, "n": 1, "distinct_devices": 1, "blind_gap": 0.844, "dominant_vehicle_class": "CAR/LV", "primary_infraction_type": "PARKING IN A MAIN ROAD"}}, {"type": "Feature", "geometry": {"type": "Point", "coordinates": [77.5814163, 13.0702239]}, "properties": {"gh7": "tdr4m7m", "predicted_impact": 95.6, "n": 1, "distinct_devices": 1, "blind_gap": 0.844, "dominant_vehicle_class": "OTHER", "primary_infraction_type": "PARKING NEAR ROAD CROSSING"}}, {"type": "Feature", "geometry": {"type": "Point", "coordinates": [77.75544575173693, 12.968793564429724]}, "properties": {"gh7": "tdr3c2g", "predicted_impact": 95.6, "n": 1, "distinct_devices": 1, "blind_gap": 0.844, "dominant_vehicle_class": "CAR/LV", "primary_infraction_type": "NO PARKING"}}, {"type": "Feature", "geometry": {"type": "Point", "coordinates": [77.5800436, 12.9488956]}, "properties": {"gh7": "tdr1tmk", "predicted_impact": 95.6, "n": 1, "distinct_devices": 1, "blind_gap": 0.844, "dominant_vehicle_class": "TWO-WHEELER", "primary_infraction_type": "DEFECTIVE NUMBER PLATE"}}, {"type": "Feature", "geometry": {"type": "Point", "coordinates": [77.5802037, 12.918349]}, "properties": {"gh7": "tdr1mrs", "predicted_impact": 95.6, "n": 1, "distinct_devices": 1, "blind_gap": 0.844, "dominant_vehicle_class": "AUTO", "primary_infraction_type": "NO PARKING"}}, {"type": "Feature", "geometry": {"type": "Point", "coordinates": [77.6004004, 13.0232679]}, "properties": {"gh7": "tdr4jff", "predicted_impact": 95.6, "n": 1, "distinct_devices": 1, "blind_gap": 0.844, "dominant_vehicle_class": "CAR/LV", "primary_infraction_type": "PARKING IN A MAIN ROAD"}}, {"type": "Feature", "geometry": {"type": "Point", "coordinates": [77.6218883, 12.8987133]}, "properties": {"gh7": "tdr1qk4", "predicted_impact": 95.6, "n": 1, "distinct_devices": 1, "blind_gap": 0.844, "dominant_vehicle_class": "CAR/LV", "primary_infraction_type": "PARKING IN A MAIN ROAD"}}, {"type": "Feature", "geometry": {"type": "Point", "coordinates": [77.5919524, 13.0266506]}, "properties": {"gh7": "tdr4jek", "predicted_impact": 95.6, "n": 1, "distinct_devices": 1, "blind_gap": 0.844, "dominant_vehicle_class": "TWO-WHEELER", "primary_infraction_type": "DOUBLE PARKING"}}, {"type": "Feature", "geometry": {"type": "Point", "coordinates": [77.5282017, 13.0086067]}, "properties": {"gh7": "tdr4h0n", "predicted_impact": 95.6, "n": 1, "distinct_devices": 1, "blind_gap": 0.844, "dominant_vehicle_class": "OTHER", "primary_infraction_type": "NO PARKING"}}, {"type": "Feature", "geometry": {"type": "Point", "coordinates": [77.5373944, 12.9499501]}, "properties": {"gh7": "tdr1smm", "predicted_impact": 95.6, "n": 1, "distinct_devices": 1, "blind_gap": 0.844, "dominant_vehicle_class": "TWO-WHEELER", "primary_infraction_type": "PARKING IN A MAIN ROAD"}}, {"type": "Feature", "geometry": {"type": "Point", "coordinates": [77.7571911, 13.0041122]}, "properties": {"gh7": "tdr3crm", "predicted_impact": 95.6, "n": 1, "distinct_devices": 1, "blind_gap": 0.844, "dominant_vehicle_class": "OTHER", "primary_infraction_type": "PARKING IN A MAIN ROAD"}}, {"type": "Feature", "geometry": {"type": "Point", "coordinates": [77.540515, 12.9509817]}, "properties": {"gh7": "tdr1smx", "predicted_impact": 95.6, "n": 1, "distinct_devices": 1, "blind_gap": 0.844, "dominant_vehicle_class": "CAR/LV", "primary_infraction_type": "NO PARKING"}}, {"type": "Feature", "geometry": {"type": "Point", "coordinates": [77.7138404, 13.0045814]}, "properties": {"gh7": "tdr3brm", "predicted_impact": 95.6, "n": 1, "distinct_devices": 1, "blind_gap": 0.844, "dominant_vehicle_class": "CAR/LV", "primary_infraction_type": "PARKING IN A MAIN ROAD"}}, {"type": "Feature", "geometry": {"type": "Point", "coordinates": [77.5195683, 12.9598976]}, "properties": {"gh7": "tdr1sp2", "predicted_impact": 95.6, "n": 1, "distinct_devices": 1, "blind_gap": 0.844, "dominant_vehicle_class": "CAR/LV", "primary_infraction_type": "NO PARKING"}}, {"type": "Feature", "geometry": {"type": "Point", "coordinates": [77.5195729, 12.9363928]}, "properties": {"gh7": "tdr1s4b", "predicted_impact": 95.6, "n": 1, "distinct_devices": 1, "blind_gap": 0.844, "dominant_vehicle_class": "OTHER", "primary_infraction_type": "PARKING IN A MAIN ROAD"}}, {"type": "Feature", "geometry": {"type": "Point", "coordinates": [77.5332366, 12.9588553]}, "properties": {"gh7": "tdr1sr1", "predicted_impact": 95.6, "n": 1, "distinct_devices": 1, "blind_gap": 0.844, "dominant_vehicle_class": "CAR/LV", "primary_infraction_type": "NO PARKING"}}, {"type": "Feature", "geometry": {"type": "Point", "coordinates": [77.5102354, 13.0369347]}, "properties": {"gh7": "tdr45v3", "predicted_impact": 95.6, "n": 1, "distinct_devices": 1, "blind_gap": 0.844, "dominant_vehicle_class": "OTHER", "primary_infraction_type": "PARKING IN A MAIN ROAD"}}, {"type": "Feature", "geometry": {"type": "Point", "coordinates": [77.6568471, 12.893876]}, "properties": {"gh7": "tdr1r57", "predicted_impact": 95.6, "n": 1, "distinct_devices": 1, "blind_gap": 0.844, "dominant_vehicle_class": "CAR/LV", "primary_infraction_type": "PARKING IN A MAIN ROAD"}}, {"type": "Feature", "geometry": {"type": "Point", "coordinates": [77.562415, 12.9577767]}, "properties": {"gh7": "tdr1syz", "predicted_impact": 95.6, "n": 1, "distinct_devices": 1, "blind_gap": 0.844, "dominant_vehicle_class": "CAR/LV", "primary_infraction_type": "DOUBLE PARKING"}}, {"type": "Feature", "geometry": {"type": "Point", "coordinates": [77.5235756, 13.0155316]}, "properties": {"gh7": "tdr4h16", "predicted_impact": 95.6, "n": 1, "distinct_devices": 1, "blind_gap": 0.844, "dominant_vehicle_class": "CAR/LV", "primary_infraction_type": "NO PARKING"}}, {"type": "Feature", "geometry": {"type": "Point", "coordinates": [77.5907938, 13.0100208]}, "properties": {"gh7": "tdr4j87", "predicted_impact": 95.6, "n": 1, "distinct_devices": 1, "blind_gap": 0.844, "dominant_vehicle_class": "TWO-WHEELER", "primary_infraction_type": "NO PARKING"}}, {"type": "Feature", "geometry": {"type": "Point", "coordinates": [77.5374313, 13.0092855]}, "properties": {"gh7": "tdr4h2m", "predicted_impact": 95.6, "n": 1, "distinct_devices": 1, "blind_gap": 0.844, "dominant_vehicle_class": "CAR/LV", "primary_infraction_type": "PARKING IN A MAIN ROAD"}}, {"type": "Feature", "geometry": {"type": "Point", "coordinates": [77.64525443970362, 12.899298054447414]}, "properties": {"gh7": "tdr1qu5", "predicted_impact": 95.6, "n": 1, "distinct_devices": 1, "blind_gap": 0.844, "dominant_vehicle_class": "CAR/LV", "primary_infraction_type": "PARKING IN A MAIN ROAD"}}]}